{"type": "FeatureCollection", "features": [ {"type": "Feature", "properties": {"norad_id": 66436, "name": "STARLINK-35501", "group": "last-30-days", "lat": 17.508353181732726, "lon": 89.59470737142901, "alt_km": 434.0470369708337, "timestamp": "2025-12-08T21:31:03.446261+00:00", "meta": {"OBJECT_NAME": "STARLINK-35501", "OBJECT_ID": "2025-259Q", "EPOCH": "2025-12-08T14:00:01.999872", "MEAN_MOTION": 15.44643841, "ECCENTRICITY": 0.00013854, "INCLINATION": 43.0003, "RA_OF_ASC_NODE": 71.6218, "ARG_OF_PERICENTER": 286.6622, "MEAN_ANOMALY": 156.6247, "EPHEMERIS_TYPE": 0, "CLASSIFICATION_TYPE": "U", "NORAD_CAT_ID": 66436, "ELEMENT_SET_NO": 999, "REV_AT_EPOCH": 561, "BSTAR": -0.048236932, "MEAN_MOTION_DOT": -0.02045928, "MEAN_MOTION_DDOT": 0}, "tle": {"line1": "1 66436U 25259Q   25342.58335648 -.02045928  00000+0 -48237-1 0  9992", "line2": "2 66436  43.0003  71.6218 0001385 286.6622 156.6247 15.44643841  5614"}}, "geometry": {"type": "Point", "coordinates": [89.59470737142901, 17.508353181732726]}}, {"type": "Feature", "properties": {"norad_id": 66437, "name": "STARLINK-35474", "group": "last-30-days", "lat": 23.15169172942447, "lon": 97.09907675601549, "alt_km": 429.40652439249243, "timestamp": "2025-12-08T21:31:03.446271+00:00", "meta": {"OBJECT_NAME": "STARLINK-35474", "OBJECT_ID": "2025-259R", "EPOCH": "2025-12-08T14:00:01.999872", "MEAN_MOTION": 15.45971191, "ECCENTRICITY": 0.00014251, "INCLINATION": 43.0008, "RA_OF_ASC_NODE": 71.6032, "ARG_OF_PERICENTER": 286.1667, "MEAN_ANOMALY": 164.6411, "EPHEMERIS_TYPE": 0, "CLASSIFICATION_TYPE": "U", "NORAD_CAT_ID": 66437, "ELEMENT_SET_NO": 999, "REV_AT_EPOCH": 561, "BSTAR": -0.045859678, "MEAN_MOTION_DOT": -0.02037581, "MEAN_MOTION_DDOT": 0}, "tle": {"line1": "1 66437U 25259R   25342.58335648 -.02037581  00000+0 -45860-1 0  9998", "line2": "2 66437  43.0008  71.6032 0001425 286.1667 164.6411 15.45971191  5618"}}, "geometry": {"type": "Point", "coordinates": [97.09907675601549, 23.15169172942447]}}, {"type": "Feature", "properties": {"norad_id": 66438, "name": "STARLINK-34681", "group": "last-30-days", "lat": 32.21098552107401, "lon": 112.28300385125355, "alt_km": 409.74197298650597, "timestamp": "2025-12-08T21:31:03.446284+00:00", "meta": {"OBJECT_NAME": "STARLINK-34681", "OBJECT_ID": "2025-259S", "EPOCH": "2025-12-07T23:39:13.067424", "MEAN_MOTION": 15.5049474, "ECCENTRICITY": 0.00027185, "INCLINATION": 42.9984, "RA_OF_ASC_NODE": 75.0723, "ARG_OF_PERICENTER": 311.9192, "MEAN_ANOMALY": 48.1436, "EPHEMERIS_TYPE": 0, "CLASSIFICATION_TYPE": "U", "NORAD_CAT_ID": 66438, "ELEMENT_SET_NO": 999, "REV_AT_EPOCH": 532, "BSTAR": 0.0016901486, "MEAN_MOTION_DOT": 0.00099791, "MEAN_MOTION_DDOT": 0}, "tle": {"line1": "1 66438U 25259S   25341.98556791  .00099791  00000+0  16901-2 0  9998", "line2": "2 66438  42.9984  75.0723 0002718 311.9192  48.1436 15.50494740  5328"}}, "geometry": {"type": "Point", "coordinates": [112.28300385125355, 32.21098552107401]}}, {"type": "Feature", "properties": {"norad_id": 66439, "name": "STARLINK-35327", "group": "last-30-days", "lat": 10.663058381267154, "lon": 81.49288260807052, "alt_km": 438.8150014723451, "timestamp": "2025-12-08T21:31:03.446296+00:00", "meta": {"OBJECT_NAME": "STARLINK-35327", "OBJECT_ID": "2025-259T", "EPOCH": "2025-12-08T14:00:01.999872", "MEAN_MOTION": 15.43272009, "ECCENTRICITY": 0.00015041, "INCLINATION": 43.0004, "RA_OF_ASC_NODE": 71.6465, "ARG_OF_PERICENTER": 279.5159, "MEAN_ANOMALY": 154.8364, "EPHEMERIS_TYPE": 0, "CLASSIFICATION_TYPE": "U", "NORAD_CAT_ID": 66439, "ELEMENT_SET_NO": 999, "REV_AT_EPOCH": 561, "BSTAR": -0.047134273, "MEAN_MOTION_DOT": -0.01921806, "MEAN_MOTION_DDOT": 0}, "tle": {"line1": "1 66439U 25259T   25342.58335648 -.01921806  00000+0 -47134-1 0  9997", "line2": "2 66439  43.0004  71.6465 0001504 279.5159 154.8364 15.43272009  5614"}}, "geometry": {"type": "Point", "coordinates": [81.49288260807052, 10.663058381267154]}}, {"type": "Feature", "properties": {"norad_id": 66440, "name": "STARLINK-35405", "group": "last-30-days", "lat": 32.72324397636621, "lon": 113.33166818159843, "alt_km": 413.6295329392169, "timestamp": "2025-12-08T21:31:03.446306+00:00", "meta": {"OBJECT_NAME": "STARLINK-35405", "OBJECT_ID": "2025-259U", "EPOCH": "2025-12-08T07:22:31.709280", "MEAN_MOTION": 15.5025432, "ECCENTRICITY": 0.00089559, "INCLINATION": 43.0019, "RA_OF_ASC_NODE": 73.1858, "ARG_OF_PERICENTER": 293.5691, "MEAN_ANOMALY": 66.4228, "EPHEMERIS_TYPE": 0, "CLASSIFICATION_TYPE": "U", "NORAD_CAT_ID": 66440, "ELEMENT_SET_NO": 999, "REV_AT_EPOCH": 548, "BSTAR": -0.0014583339, "MEAN_MOTION_DOT": -0.00084166, "MEAN_MOTION_DDOT": 0}, "tle": {"line1": "1 66440U 25259U   25342.30731145 -.00084166  00000+0 -14583-2 0  9992", "line2": "2 66440  43.0019  73.1858 0008955 293.5691  66.4228 15.50254320  5485"}}, "geometry": {"type": "Point", "coordinates": [113.33166818159843, 32.72324397636621]}}, {"type": "Feature", "properties": {"norad_id": 66441, "name": "STARLINK-35426", "group": "last-30-days", "lat": 34.089163883222156, "lon": 116.30649112910965, "alt_km": 410.29582853546435, "timestamp": "2025-12-08T21:31:03.446317+00:00", "meta": {"OBJECT_NAME": "STARLINK-35426", "OBJECT_ID": "2025-259V", "EPOCH": "2025-12-08T13:33:01.913472", "MEAN_MOTION": 15.50516656, "ECCENTRICITY": 0.00042414, "INCLINATION": 43.0012, "RA_OF_ASC_NODE": 71.6764, "ARG_OF_PERICENTER": 306.6467, "MEAN_ANOMALY": 53.4003, "EPHEMERIS_TYPE": 0, "CLASSIFICATION_TYPE": "U", "NORAD_CAT_ID": 66441, "ELEMENT_SET_NO": 999, "REV_AT_EPOCH": 552, "BSTAR": 0.0027131816, "MEAN_MOTION_DOT": 0.00161833, "MEAN_MOTION_DDOT": 0}, "tle": {"line1": "1 66441U 25259V   25342.56460548  .00161833  00000+0  27132-2 0  9996", "line2": "2 66441  43.0012  71.6764 0004241 306.6467  53.4003 15.50516656  5524"}}, "geometry": {"type": "Point", "coordinates": [116.30649112910965, 34.089163883222156]}}, {"type": "Feature", "properties": {"norad_id": 66442, "name": "STARLINK-34724", "group": "last-30-days", "lat": 39.03264957292567, "lon": 130.16206754519632, "alt_km": 397.2694210603595, "timestamp": "2025-12-08T21:31:03.446327+00:00", "meta": {"OBJECT_NAME": "STARLINK-34724", "OBJECT_ID": "2025-259W", "EPOCH": "2025-12-08T08:53:45.907872", "MEAN_MOTION": 15.53152076, "ECCENTRICITY": 0.00114498, "INCLINATION": 43.0013, "RA_OF_ASC_NODE": 72.8021, "ARG_OF_PERICENTER": 246.0314, "MEAN_ANOMALY": 113.9348, "EPHEMERIS_TYPE": 0, "CLASSIFICATION_TYPE": "U", "NORAD_CAT_ID": 66442, "ELEMENT_SET_NO": 999, "REV_AT_EPOCH": 549, "BSTAR": 0.052423452, "MEAN_MOTION_DOT": 0.03860638, "MEAN_MOTION_DDOT": 0}, "tle": {"line1": "1 66442U 25259W   25342.37067023  .03860638  00000+0  52423-1 0  9999", "line2": "2 66442  43.0013  72.8021 0011449 246.0314 113.9348 15.53152076  5496"}}, "geometry": {"type": "Point", "coordinates": [130.16206754519632, 39.03264957292567]}}, {"type": "Feature", "properties": {"norad_id": 66443, "name": "STARLINK-35219", "group": "last-30-days", "lat": 35.85593046896936, "lon": 120.57820824371737, "alt_km": 409.03583257383343, "timestamp": "2025-12-08T21:31:03.446339+00:00", "meta": {"OBJECT_NAME": "STARLINK-35219", "OBJECT_ID": "2025-259X", "EPOCH": "2025-12-08T15:04:46.969824", "MEAN_MOTION": 15.5058509, "ECCENTRICITY": 3.72e-05, "INCLINATION": 43.0003, "RA_OF_ASC_NODE": 71.2922, "ARG_OF_PERICENTER": 79.7553, "MEAN_ANOMALY": 280.3349, "EPHEMERIS_TYPE": 0, "CLASSIFICATION_TYPE": "U", "NORAD_CAT_ID": 66443, "ELEMENT_SET_NO": 999, "REV_AT_EPOCH": 542, "BSTAR": 0.00034479704, "MEAN_MOTION_DOT": 0.00019942, "MEAN_MOTION_DDOT": 0}, "tle": {"line1": "1 66443U 25259X   25342.62832141  .00019942  00000+0  34480-3 0  9995", "line2": "2 66443  43.0003  71.2922 0000372  79.7553 280.3349 15.50585090  5424"}}, "geometry": {"type": "Point", "coordinates": [120.57820824371737, 35.85593046896936]}}, {"type": "Feature", "properties": {"norad_id": 66444, "name": "STARLINK-35360", "group": "last-30-days", "lat": 38.18427644086527, "lon": 127.26926859656652, "alt_km": 410.0147785822837, "timestamp": "2025-12-08T21:31:03.446349+00:00", "meta": {"OBJECT_NAME": "STARLINK-35360", "OBJECT_ID": "2025-259Y", "EPOCH": "2025-12-08T15:03:17.438688", "MEAN_MOTION": 15.50615761, "ECCENTRICITY": 0.00022556, "INCLINATION": 43.0012, "RA_OF_ASC_NODE": 71.2839, "ARG_OF_PERICENTER": 271.2736, "MEAN_ANOMALY": 88.7866, "EPHEMERIS_TYPE": 0, "CLASSIFICATION_TYPE": "U", "NORAD_CAT_ID": 66444, "ELEMENT_SET_NO": 999, "REV_AT_EPOCH": 553, "BSTAR": 0.0019176658, "MEAN_MOTION_DOT": 0.00113963, "MEAN_MOTION_DDOT": 0}, "tle": {"line1": "1 66444U 25259Y   25342.62728517  .00113963  00000+0  19177-2 0  9990", "line2": "2 66444  43.0012  71.2839 0002255 271.2736  88.7866 15.50615761  5531"}}, "geometry": {"type": "Point", "coordinates": [127.26926859656652, 38.18427644086527]}}, {"type": "Feature", "properties": {"norad_id": 66445, "name": "STARLINK-34698", "group": "last-30-days", "lat": 36.655967459522756, "lon": 122.70160321533503, "alt_km": 410.5372100934492, "timestamp": "2025-12-08T21:31:03.446360+00:00", "meta": {"OBJECT_NAME": "STARLINK-34698", "OBJECT_ID": "2025-259Z", "EPOCH": "2025-12-08T13:31:32.441952", "MEAN_MOTION": 15.50582419, "ECCENTRICITY": 0.00024286, "INCLINATION": 43.0056, "RA_OF_ASC_NODE": 71.6672, "ARG_OF_PERICENTER": 260.1314, "MEAN_ANOMALY": 99.9272, "EPHEMERIS_TYPE": 0, "CLASSIFICATION_TYPE": "U", "NORAD_CAT_ID": 66445, "ELEMENT_SET_NO": 999, "REV_AT_EPOCH": 541, "BSTAR": 0.0015531654, "MEAN_MOTION_DOT": 0.00091866, "MEAN_MOTION_DDOT": 0}, "tle": {"line1": "1 66445U 25259Z   25342.56356993  .00091866  00000+0  15532-2 0  9997", "line2": "2 66445  43.0056  71.6672 0002428 260.1314  99.9272 15.50582419  5415"}}, "geometry": {"type": "Point", "coordinates": [122.70160321533503, 36.655967459522756]}}]}